{"type":"FeatureCollection","features":[{"type":"Feature","properties":{"name":"Seyhan"},"geometry":{"type":"Polygon","coordinates":[[[35.0881251,36.9695794],[35.0939391,36.9803981],[35.1207871,36.9848435],[35.1142359,37.0002564],[35.1215637,37.0101351],[35.1191591,37.0314524],[35.1301092,37.0360532],[35.1606622,37.0400183],[35.2011122,37.0299026],[35.3136461,37.0296175],[35.3375294,37.0024969],[35.3258135,36.9607414],[35.3341391,36.9491501],[35.3248694,36.9412613],[35.337641,36.9185032],[35.3266321,36.9100542],[35.3305803,36.8998622],[35.3109813,36.9037493],[35.3227697,36.8930668],[35.3223406,36.8810876],[35.2913986,36.89341],[35.2887808,36.8787876],[35.271958,36.8677331],[35.2561115,36.8825464],[35.2505003,36.8735867],[35.2608543,36.852513],[35.2357374,36.8542045],[35.2295183,36.8446579],[35.2371536,36.8366208],[35.2259974,36.8270689],[35.2058323,36.8288744],[35.204267,36.8178299],[35.1806531,36.8106495],[35.177573,36.7967803],[35.1538663,36.7986515],[35.1403792,36.7908298],[35.1464908,36.8077033],[35.1253682,36.8154032],[35.1244182,36.8223629],[35.1439819,36.8367316],[35.1516494,36.8579385],[35.1371361,36.862098],[35.1453388,36.9102092],[35.1307904,36.9076485],[35.1200294,36.9413515],[35.0962398,36.9477387],[35.0991511,36.9628718],[35.0881251,36.9695794]]]}},{"type":"Feature","properties":{"name":"Çukurova"},"geometry":{"type":"Polygon","coordinates":[[[35.0065807,37.0769864],[35.0067268,37.111825],[35.0243587,37.157605],[35.0479102,37.1700955],[35.0769332,37.139645],[35.1197043,37.1264093],[35.1476313,37.128515],[35.1826747,37.1466797],[35.2808599,37.1638135],[35.2708851,37.1510725],[35.2898154,37.14323],[35.2837388,37.1381374],[35.3024627,37.134457],[35.2993801,37.1201239],[35.3184231,37.1329411],[35.327037,37.1261423],[35.3168097,37.1193199],[35.3250157,37.0981211],[35.3054748,37.1031012],[35.2905403,37.0913261],[35.2913986,37.0814665],[35.3317945,37.0482765],[35.3344653,37.0290534],[35.2011122,37.0299026],[35.1586326,37.0400661],[35.1213131,37.0326791],[35.1225013,37.0406508],[35.0810383,37.0508336],[35.0814782,37.0646132],[35.0660808,37.0573287],[35.0533229,37.0675093],[35.0118598,37.0647887],[35.0065807,37.0769864]]]}},{"type":"Feature","properties":{"name":"Yüreğir"},"geometry":{"type":"Polygon","coordinates":[[[35.1358871,36.7887454],[35.1538663,36.7986515],[35.177573,36.7967803],[35.1806531,36.8106495],[35.204267,36.8178299],[35.2058323,36.8288744],[35.2259974,36.8270689],[35.2371536,36.8366208],[35.2295183,36.8446579],[35.2357374,36.8542045],[35.2608543,36.852513],[35.2505003,36.8735867],[35.2561115,36.8825464],[35.271958,36.8677331],[35.2887808,36.8787876],[35.2913986,36.89341],[35.3229843,36.8818428],[35.3227697,36.8930668],[35.3109251,36.9030538],[35.3305803,36.8998622],[35.3266321,36.9100542],[35.337641,36.9185032],[35.3248694,36.9412613],[35.3341391,36.9491501],[35.3258135,36.9607414],[35.3383448,36.9946138],[35.3236223,37.0230866],[35.3344653,37.0290534],[35.3322004,37.0410733],[35.3858697,37.0141942],[35.394001,36.9832633],[35.6180735,36.9651042],[35.6675413,36.9829178],[35.669705,36.9708241],[35.6594538,36.9602486],[35.6609282,36.944967],[35.6717175,36.9340365],[35.6688702,36.9219863],[35.6382212,36.88849],[35.6591004,36.874205],[35.6834082,36.8745513],[35.6866268,36.8641571],[35.6802422,36.8599174],[35.6924428,36.8409602],[35.7035125,36.8445324],[35.7015801,36.8314559],[35.6280378,36.810376],[35.6225877,36.7906095],[35.5995049,36.7857313],[35.5514158,36.7916365],[35.4787697,36.7818929],[35.4894128,36.7700337],[35.4831471,36.759634],[35.428807,36.7658287],[35.3685862,36.7434584],[35.3419718,36.7413022],[35.3235578,36.7198967],[35.3226737,36.7014307],[35.3088869,36.6995029],[35.2850955,36.7171581],[35.2862974,36.7441682],[35.2787549,36.7332797],[35.2402839,36.7290502],[35.2445985,36.7167273],[35.2391195,36.7147769],[35.215092,36.7267352],[35.2179885,36.7355768],[35.2015754,36.7532023],[35.185471,36.7351015],[35.1576109,36.7277951],[35.1517383,36.7313979],[35.1611411,36.7466391],[35.1426231,36.7648932],[35.1467587,36.7705621],[35.137382,36.7816546],[35.1434593,36.7851096],[35.1358871,36.7887454]]]}},{"type":"Feature","properties":{"name":"Sarıçam"},"geometry":{"type":"Polygon","coordinates":[[[35.2706276,37.1534669],[35.2819167,37.1616298],[35.2724322,37.1750196],[35.2837597,37.17002],[35.2884804,37.1753545],[35.2722872,37.1860146],[35.2777101,37.2047848],[35.3128298,37.2202411],[35.3252376,37.2500261],[35.3441204,37.2584975],[35.3958339,37.2518864],[35.4184624,37.2224674],[35.469163,37.2175467],[35.5619087,37.2384103],[35.5642498,37.2201281],[35.5494825,37.2202715],[35.5621788,37.1981835],[35.5805777,37.1868356],[35.5719652,37.1489216],[35.5756584,37.1338741],[35.6210033,37.1314205],[35.6273638,37.120787],[35.6203877,37.0995155],[35.6324934,37.0918236],[35.6796848,37.0901869],[35.6737346,37.0318981],[35.6458208,36.9826033],[35.6570024,36.9824315],[35.6445581,36.9704726],[35.6180735,36.9651042],[35.394001,36.9832633],[35.3858697,37.0141942],[35.3322004,37.0410733],[35.2913986,37.0814665],[35.2965484,37.0994045],[35.3250157,37.0981211],[35.3168097,37.1193199],[35.3265473,37.1222373],[35.3258271,37.1291054],[35.3149659,37.1321372],[35.2993801,37.1201239],[35.3024627,37.134457],[35.2837388,37.1381374],[35.2898154,37.14323],[35.2706276,37.1534669]]]}},{"type":"Feature","properties":{"name":"Ceyhan"},"geometry":{"type":"Polygon","coordinates":[[[35.5719652,37.1489216],[35.5878312,37.1934908],[35.6376421,37.2144084],[35.7351438,37.2297012],[35.7415454,37.2502174],[35.7722732,37.2559139],[35.8014203,37.2764454],[35.9064526,37.2333592],[35.8764549,37.1849843],[35.8821774,37.1746058],[35.89918,37.1746807],[35.8959194,37.1836341],[35.9283809,37.192766],[35.9448811,37.2099948],[35.9579014,37.2061011],[35.9737331,37.2199504],[36.03544,37.211833],[36.0795077,37.1960556],[36.0676844,37.1657226],[36.0961582,37.1549804],[36.0965447,37.1434541],[36.0779916,37.105474],[36.099166,37.0845361],[36.0895003,37.0809415],[36.0923052,37.0581042],[36.0645587,37.0569374],[36.0571269,37.0459331],[36.0575643,37.0082109],[36.0305679,36.9942728],[36.014616,36.9651677],[35.9914374,36.9663901],[36.0033389,36.9503798],[36.0013219,36.9353566],[36.0435935,36.9360427],[36.0428807,36.9278984],[36.0046171,36.9290499],[35.9192376,36.8731985],[35.9151617,36.8949484],[35.905943,36.8851878],[35.8887942,36.8850732],[35.8592897,36.8990113],[35.8503625,36.8885061],[35.8055763,36.8798023],[35.8007849,36.8733427],[35.81181,36.8603462],[35.7871317,36.8488941],[35.73782,36.8542699],[35.6924428,36.8409602],[35.6802422,36.8599174],[35.6866268,36.8641571],[35.6834082,36.8745513],[35.6591004,36.874205],[35.6382212,36.88849],[35.6635575,36.9127625],[35.6717175,36.9340365],[35.6609282,36.944967],[35.6594538,36.9602486],[35.669705,36.9708241],[35.6675413,36.9829178],[35.6458208,36.9826033],[35.6737346,37.0318981],[35.6796848,37.0901869],[35.6324934,37.0918236],[35.6203877,37.0995155],[35.6273638,37.120787],[35.6210033,37.1314205],[35.5756584,37.1338741],[35.5719652,37.1489216]]]}},{"type":"Feature","properties":{"name":"Kozan"},"geometry":{"type":"Polygon","coordinates":[[[35.4611035,37.4275382],[35.4831352,37.4499074],[35.4987156,37.4445935],[35.4969219,37.4606905],[35.5135392,37.4678896],[35.4967767,37.4913505],[35.5238389,37.5089567],[35.519998,37.5225046],[35.528107,37.533168],[35.5202671,37.5540314],[35.5392884,37.5846978],[35.5849429,37.605668],[35.5705308,37.6393632],[35.5807446,37.6634875],[35.535426,37.6776186],[35.4824597,37.7079578],[35.5195961,37.7251739],[35.5174089,37.7606489],[35.5299356,37.7761303],[35.5187469,37.8010114],[35.5611436,37.8023097],[35.5761028,37.7880553],[35.6100476,37.788352],[35.6344002,37.8072387],[35.660434,37.8042073],[35.6627494,37.7853315],[35.684276,37.7573074],[35.6763821,37.7379591],[35.6826454,37.7204969],[35.7016464,37.7085962],[35.770032,37.7074419],[35.8121688,37.691969],[35.8528639,37.7186677],[35.8732867,37.7137582],[35.8752879,37.7242798],[35.9013502,37.7207041],[35.9070124,37.7004435],[35.920608,37.7052182],[35.9288068,37.7231172],[35.9408826,37.7240723],[35.9459672,37.7097436],[35.9589328,37.7026537],[35.976453,37.7101999],[36.0057185,37.6954145],[36.0208376,37.7125046],[36.0499462,37.7198997],[36.0367923,37.7259042],[36.0322931,37.7432251],[36.0840969,37.741504],[36.1233469,37.7521289],[36.2065599,37.7494671],[36.1880393,37.7499239],[36.1712357,37.7351471],[36.147808,37.7324557],[36.0694029,37.6408679],[35.9716379,37.5663131],[35.9621729,37.5168932],[35.947189,37.4885968],[35.9203142,37.4744117],[35.9268676,37.4512812],[35.9414396,37.4401178],[35.9374921,37.4218054],[35.9221164,37.4194159],[35.9140677,37.3840286],[35.9202763,37.3456826],[35.9109888,37.3309682],[35.9034194,37.2846208],[35.9172966,37.2533962],[35.9139212,37.2343327],[35.8329152,37.2594913],[35.7945583,37.2797608],[35.7596028,37.3064394],[35.7470723,37.3256713],[35.6844193,37.3658675],[35.6389135,37.3595774],[35.63034,37.3476945],[35.6162002,37.353221],[35.588399,37.3470472],[35.5479916,37.3700397],[35.5351603,37.4114443],[35.4611035,37.4275382]]]}},{"type":"Feature","properties":{"name":"Karataş"},"geometry":{"type":"MultiPolygon","coordinates":[[[[34.9114609,36.728669],[34.9271477,36.7451071],[34.9579206,36.7412663],[34.9577141,36.7539183],[34.9688518,36.7516475],[34.9690843,36.7591791],[34.9932652,36.760855],[35.0084886,36.7511808],[35.005267,36.7679218],[35.0283984,36.7580203],[35.0266818,36.778372],[35.034149,36.778647],[35.0421742,36.7642432],[35.076764,36.7989245],[35.0956467,36.7832184],[35.1305798,36.7926012],[35.1467587,36.7705621],[35.1426231,36.7648932],[35.1611411,36.7466391],[35.1517383,36.7313979],[35.1576109,36.7277951],[35.185471,36.7351015],[35.2015754,36.7532023],[35.2179885,36.7355768],[35.215092,36.7267352],[35.2391195,36.7147769],[35.2445985,36.7167273],[35.2402839,36.7290502],[35.2787549,36.7332797],[35.2862974,36.7441682],[35.2850955,36.7171581],[35.3088869,36.6995029],[35.3226737,36.7014307],[35.3235578,36.7198967],[35.3419718,36.7413022],[35.3685862,36.7434584],[35.428807,36.7658287],[35.4831471,36.759634],[35.4940476,36.7544937],[35.5016865,36.735133],[35.4980817,36.7229914],[35.4807009,36.7150451],[35.4678692,36.6709637],[35.4909577,36.6655938],[35.4878678,36.6501015],[35.5111279,36.6446268],[35.5231871,36.6486554],[35.5261912,36.6721685],[35.5398383,36.6614972],[35.5634417,36.6585366],[35.560781,36.6480701],[35.582582,36.6326431],[35.5929675,36.6110127],[35.5647292,36.586964],[35.5577885,36.5670291],[35.4988939,36.5856446],[35.4217098,36.5906596],[35.4077857,36.5856246],[35.4086711,36.5738247],[35.3827944,36.5557805],[35.3391955,36.5388127],[35.3243144,36.5578326],[35.0190427,36.7034771],[34.974934,36.719056],[34.9114609,36.728669]]],[[[35.3879145,36.5562833],[35.3897657,36.556678],[35.388826,36.5561667],[35.3879145,36.5562833]]],[[[35.3941997,36.5572385],[35.3947147,36.5577448],[35.39678,36.5575897],[35.3941997,36.5572385]]]]}},{"type":"Feature","properties":{"name":"Yumurtalık"},"geometry":{"type":"MultiPolygon","coordinates":[[[[35.4658522,36.6757138],[35.4807009,36.7150451],[35.4980817,36.7229914],[35.5016865,36.735133],[35.4940476,36.7544937],[35.4834904,36.7579664],[35.4894128,36.7700337],[35.4787697,36.7818929],[35.5514158,36.7916365],[35.5995049,36.7857313],[35.6225877,36.7906095],[35.6280378,36.810376],[35.7015801,36.8314559],[35.7059783,36.8457145],[35.73782,36.8542699],[35.7871317,36.8488941],[35.81181,36.8603462],[35.8007849,36.8733427],[35.8055763,36.8798023],[35.8503625,36.8885061],[35.8592897,36.8990113],[35.8887942,36.8850732],[35.905943,36.8851878],[35.9151617,36.8949484],[35.92214,36.8696417],[35.8989308,36.8469202],[35.9064245,36.834278],[35.8859348,36.8372764],[35.8501928,36.8107199],[35.8455752,36.7979128],[35.8016088,36.7784588],[35.7955473,36.7663115],[35.7536091,36.7698451],[35.7107192,36.7589709],[35.6984961,36.7673675],[35.6679779,36.7673804],[35.6281498,36.7468087],[35.615186,36.725071],[35.61546,36.733155],[35.602829,36.727654],[35.59453,36.718075],[35.597156,36.701323],[35.606533,36.705098],[35.611412,36.698442],[35.6060818,36.709695],[35.61582,36.715554],[35.615535,36.702461],[35.622331,36.700641],[35.623846,36.707672],[35.630155,36.696231],[35.6614494,36.7082792],[35.6801283,36.7087409],[35.6443343,36.698593],[35.7020012,36.7093041],[35.6708264,36.6977328],[35.6768024,36.6936208],[35.7112613,36.7071424],[35.7231507,36.7233007],[35.7245432,36.7184147],[35.6466058,36.6702888],[35.6295311,36.6097749],[35.5829441,36.5863891],[35.5645916,36.5671788],[35.5593842,36.5675843],[35.5621543,36.5835181],[35.5929675,36.6110127],[35.582582,36.6326431],[35.560781,36.6480701],[35.5654158,36.6566086],[35.5261912,36.6721685],[35.5231871,36.6486554],[35.5111279,36.6446268],[35.4878678,36.6501015],[35.4909577,36.6655938],[35.4658522,36.6757138]]],[[[35.7967565,36.7691181],[35.7971495,36.7696245],[35.7972606,36.7685158],[35.7967565,36.7691181]]],[[[35.7967626,36.7718629],[35.7971435,36.7709608],[35.797127,36.7704965],[35.7967626,36.7718629]]]]}},{"type":"Feature","properties":{"name":"Aladağ"},"geometry":{"type":"Polygon","coordinates":[[[35.0342587,37.6120999],[35.05271,37.6500269],[35.0910019,37.6495881],[35.3111078,37.7175514],[35.3206733,37.7056078],[35.4051022,37.6914408],[35.4743869,37.7241721],[35.4824597,37.7079578],[35.5207493,37.6858125],[35.5807446,37.6634875],[35.5705308,37.6393632],[35.5856266,37.610203],[35.5392884,37.5846978],[35.5202671,37.5540314],[35.528107,37.533168],[35.519998,37.5225046],[35.5238389,37.5089567],[35.4967767,37.4913505],[35.5135392,37.4678896],[35.4969219,37.4606905],[35.4987156,37.4445935],[35.4831352,37.4499074],[35.4554569,37.4232613],[35.4675881,37.4009598],[35.4438458,37.4019305],[35.4805698,37.3721025],[35.4739224,37.366955],[35.4944966,37.3503533],[35.4700173,37.3302627],[35.4816211,37.3179069],[35.4896892,37.3270531],[35.4920925,37.3162686],[35.4845394,37.3083499],[35.4670299,37.318726],[35.4557428,37.3165796],[35.3940486,37.3856192],[35.2920316,37.4246376],[35.2697046,37.4590006],[35.1625351,37.439192],[35.1058177,37.4589134],[35.1120435,37.4814697],[35.0923088,37.5110821],[35.0919653,37.5315145],[35.0342587,37.6120999]]]}},{"type":"Feature","properties":{"name":"Feke"},"geometry":{"type":"Polygon","coordinates":[[[35.5756911,37.9414231],[35.6047461,37.9680317],[35.6709506,37.9837753],[35.69,37.9736461],[35.692958,37.995816],[35.683662,38.00492],[35.7119661,38.028445],[35.7224917,38.0626483],[35.7484336,38.0407119],[35.7596694,38.0416281],[35.7616667,38.0708164],[35.775988,38.053677],[35.7896992,38.0811531],[35.8265817,38.0755222],[35.8517442,38.0902456],[35.8747303,38.0845494],[35.8992117,38.0911956],[35.9198094,38.1098517],[35.9550598,38.065753],[35.9565997,38.0408754],[35.9197354,37.9938968],[35.8992219,37.9874029],[35.9214411,37.9805286],[35.9332157,37.9630272],[35.9525113,37.9783108],[35.9610795,37.9733018],[35.9556874,37.9315957],[35.9655475,37.924498],[35.9746631,37.8964862],[35.9868764,37.8922633],[35.9844337,37.8815148],[36.0376797,37.8474359],[36.0447345,37.8324785],[36.0814704,37.8191247],[36.0814704,37.7979846],[36.0577001,37.7559375],[36.0411753,37.756038],[36.0322381,37.7477966],[36.0367923,37.7259042],[36.0499462,37.7198997],[36.0208376,37.7125046],[36.0057185,37.6954145],[35.976453,37.7101999],[35.9589328,37.7026537],[35.9459672,37.7097436],[35.9408826,37.7240723],[35.9288068,37.7231172],[35.920608,37.7052182],[35.9070124,37.7004435],[35.9013502,37.7207041],[35.8752879,37.7242798],[35.8732867,37.7137582],[35.8528639,37.7186677],[35.8121688,37.691969],[35.770032,37.7074419],[35.6979442,37.7094292],[35.6763355,37.7281727],[35.684276,37.7573074],[35.6627494,37.7853315],[35.660434,37.8042073],[35.6344002,37.8072387],[35.6100476,37.788352],[35.5829157,37.7927439],[35.6037414,37.8017789],[35.6099822,37.8270044],[35.6235522,37.8408322],[35.6121797,37.8427561],[35.6189331,37.8496997],[35.5972875,37.8601467],[35.58658,37.8851875],[35.5944075,37.9051442],[35.5756911,37.9414231]]]}},{"type":"Feature","properties":{"name":"İmamoğlu"},"geometry":{"type":"Polygon","coordinates":[[[35.3958339,37.2518864],[35.4169048,37.2605468],[35.4139865,37.2743446],[35.4376758,37.2870471],[35.4371608,37.3028882],[35.4557428,37.3165796],[35.4670299,37.318726],[35.4845394,37.3083499],[35.4920925,37.3162686],[35.4896892,37.3270531],[35.4816211,37.3179069],[35.4700173,37.3302627],[35.4944966,37.3503533],[35.4739224,37.366955],[35.4805698,37.3721025],[35.4431236,37.3969711],[35.4493061,37.4054485],[35.4675881,37.4009598],[35.4554569,37.4232613],[35.4611035,37.4275382],[35.5351603,37.4114443],[35.5479916,37.3700397],[35.588399,37.3470472],[35.6162002,37.353221],[35.63034,37.3476945],[35.6389135,37.3595774],[35.6844193,37.3658675],[35.7470723,37.3256713],[35.7596028,37.3064394],[35.8014203,37.2764454],[35.7722732,37.2559139],[35.7415454,37.2502174],[35.7351438,37.2297012],[35.6376421,37.2144084],[35.5805777,37.1868356],[35.5510133,37.2143198],[35.5498427,37.2232113],[35.5642498,37.2201281],[35.5619087,37.2384103],[35.469163,37.2175467],[35.4184624,37.2224674],[35.3958339,37.2518864]]]}},{"type":"Feature","properties":{"name":"Karaisalı"},"geometry":{"type":"Polygon","coordinates":[[[34.9308191,37.1985686],[34.9374539,37.2096921],[34.9623193,37.2188807],[34.9745713,37.2676679],[34.9349448,37.2918434],[34.9416814,37.4110713],[34.9624503,37.4720348],[35.0305111,37.4938058],[35.0449323,37.4720907],[35.1625351,37.439192],[35.2697046,37.4590006],[35.3002754,37.4189089],[35.3940486,37.3856192],[35.4557428,37.3165796],[35.4371608,37.3028882],[35.4376758,37.2870471],[35.4139865,37.2743446],[35.4169048,37.2605468],[35.4088367,37.2563114],[35.3667797,37.2528955],[35.3527034,37.2593172],[35.3252376,37.2500261],[35.3128298,37.2202411],[35.2777101,37.2047848],[35.2722872,37.1860146],[35.2884804,37.1753545],[35.2714155,37.173746],[35.2808599,37.1638135],[35.1826747,37.1466797],[35.1476313,37.128515],[35.1197043,37.1264093],[35.0769332,37.139645],[35.0479102,37.1700955],[35.0297855,37.1616572],[35.0096814,37.1241658],[35.0065807,37.0769864],[34.9816055,37.120896],[34.9528802,37.1470524],[34.9513348,37.174799],[34.9308191,37.1985686]]]}},{"type":"Feature","properties":{"name":"Pozantı"},"geometry":{"type":"Polygon","coordinates":[[[34.7697383,37.4136032],[34.797161,37.4315526],[34.8020667,37.4660784],[34.8320547,37.4822985],[34.8499295,37.5147164],[34.8474673,37.5395568],[34.8695169,37.560826],[34.8652974,37.5821079],[34.8548449,37.588472],[34.8585847,37.6012564],[34.8476525,37.6087017],[34.8795525,37.6819709],[34.9055869,37.6948434],[34.9365085,37.6936459],[34.9693458,37.6743271],[35.05271,37.6500269],[35.0342587,37.6120999],[35.0919653,37.5315145],[35.0923088,37.5110821],[35.1114807,37.4736539],[35.1058177,37.4589134],[35.0449323,37.4720907],[35.0305111,37.4938058],[34.9624503,37.4720348],[34.9416814,37.4110713],[34.9349448,37.2918434],[34.8715757,37.2960167],[34.8174441,37.3090027],[34.7787786,37.3308687],[34.7875428,37.3758109],[34.7697383,37.4136032]]]}},{"type":"Feature","properties":{"name":"Saimbeyli"},"geometry":{"type":"Polygon","coordinates":[[[35.8992219,37.9874029],[35.9197354,37.9938968],[35.9548647,38.0333574],[35.9550598,38.065753],[35.9373414,38.0955106],[35.9744614,38.1172944],[35.9729153,38.1390475],[35.9930264,38.1560553],[36.0032823,38.1395836],[36.0361977,38.1272961],[36.0504814,38.0908263],[36.0872653,38.0692589],[36.1672621,38.1128712],[36.1959433,38.1037255],[36.2077555,38.1222819],[36.2572737,38.1215508],[36.2629181,38.1008191],[36.2561381,38.0763269],[36.2594412,38.0551804],[36.2660884,38.0537065],[36.2551367,38.0411649],[36.2544033,38.0260337],[36.2337968,38.0215807],[36.2299721,37.9957063],[36.2152291,37.9783963],[36.2018762,37.934954],[36.2353572,37.9466038],[36.2923058,37.906644],[36.2709921,37.8447965],[36.2853355,37.8329819],[36.2440864,37.8012162],[36.2399343,37.7715724],[36.2102703,37.7585601],[36.2065599,37.7494671],[36.1233469,37.7521289],[36.0840969,37.741504],[36.0322931,37.7432251],[36.0411753,37.756038],[36.0577001,37.7559375],[36.0584421,37.7649612],[36.068238,37.7689988],[36.0814704,37.7979846],[36.0814704,37.8191247],[36.0447345,37.8324785],[36.0376797,37.8474359],[35.9844337,37.8815148],[35.9868764,37.8922633],[35.9746631,37.8964862],[35.9655475,37.924498],[35.9556874,37.9315957],[35.9610795,37.9733018],[35.9525113,37.9783108],[35.9332157,37.9630272],[35.9214411,37.9805286],[35.8992219,37.9874029]]]}},{"type":"Feature","properties":{"name":"Tufanbeyli"},"geometry":{"type":"Polygon","coordinates":[[[35.9903569,38.22343],[36.0454786,38.2597694],[36.0496889,38.2724647],[36.1240617,38.3407033],[36.1395169,38.3435792],[36.1356233,38.32221],[36.1436094,38.3230831],[36.1649944,38.3436722],[36.1846264,38.3489997],[36.1795194,38.3836617],[36.2282653,38.3995853],[36.2807964,38.4046019],[36.2919519,38.38409],[36.3747044,38.37838],[36.3878464,38.3486228],[36.3672658,38.3358608],[36.3693514,38.3229992],[36.3562944,38.2999364],[36.4091283,38.2810308],[36.4095784,38.2628794],[36.3977408,38.2430889],[36.3857609,38.2484819],[36.3777756,38.2434089],[36.3848381,38.2268732],[36.3807227,38.2108006],[36.3940737,38.2131083],[36.3860301,38.1980188],[36.3889127,38.1862114],[36.3516985,38.1484108],[36.3626707,38.1411666],[36.3480314,38.1224515],[36.3582178,38.1047128],[36.3427345,38.0859007],[36.3516985,38.0685808],[36.3492538,38.0535027],[36.3321715,38.0675739],[36.2899255,38.0545152],[36.2609015,38.0542359],[36.2572737,38.1215508],[36.2358624,38.1248806],[36.2077555,38.1222819],[36.1959433,38.1037255],[36.1748057,38.1135939],[36.1497416,38.1063524],[36.0872653,38.0692589],[36.0504814,38.0908263],[36.0361977,38.1272961],[36.0032823,38.1395836],[35.9919956,38.1573992],[35.9951581,38.1735192],[36.0209181,38.1897481],[36.0003833,38.1950336],[35.9903569,38.22343]]]}}]}